IRIDIUM 155             
1 43573U 18061E   22275.04368546  .00000165  00000+0  52013-4 0  9998
2 43573  86.3917 262.5494 0002509  91.0711 269.0772 14.34218540219271
IRIDIUM 154             
1 43574U 18061F   22275.02464131  .00000165  00000+0  51873-4 0  9997
2 43574  86.3920 262.6257 0001940  91.0725 269.0693 14.34221677219319
IRIDIUM 163             
1 43575U 18061G   22274.72655556  .00000157  00000+0  48984-4 0  9997
2 43575  86.3918 262.7075 0002147  78.8437 281.3000 14.34216707219248
IRIDIUM 156             
1 43576U 18061H   22275.05002055  .00000156  00000+0  48476-4 0  9990
2 43576  86.3918 262.5776 0002436  83.0918 277.0554 14.34220158219272
IRIDIUM 164             
1 43577U 18061J   22275.51937254  .00000162  00000+0  50956-4 0  9993
2 43577  86.3919 262.4009 0001935  86.6794 273.4623 14.34217294219393
IRIDIUM 159             
1 43578U 18061K   22274.78996835  .00000155  00000+0  48179-4 0  9998
2 43578  86.3917 262.6714 0002000  89.4878 270.6547 14.34220494219250
IRIDIUM 180             
1 43922U 19002A   22275.20808331  .00000289  00000+0  96006-4 0  9998
2 43922  86.4042 199.4157 0001605  78.2213 281.9163 14.34221345194965
IRIDIUM 176             
1 43923U 19002B   22274.83444718  .00001055  00000+0  16348-3 0  9994
2 43923  86.6175 199.6090 0002373  86.6505 273.4983 14.72253755199988
IRIDIUM 168             
1 43924U 19002C   22274.85290309  .00000307  00000+0  10241-3 0  9997
2 43924  86.4044 199.6028 0001881  85.0903 275.0508 14.34218225194854
IRIDIUM 173             
1 43925U 19002D   22274.84021960  .00000030  00000+0  37023-5 0  9994
2 43925  86.4039 199.5523 0001909  81.2440 278.8972 14.34214031194838
IRIDIUM 169             
1 43926U 19002E   22274.93189385  .00000377  00000+0  11670-3 0  9993
2 43926  86.4240 231.0706 0006337 110.6600 249.5278 14.38616442195520
IRIDIUM 172             
1 43927U 19002F   22275.32225958  .00000291  00000+0  96677-4 0  9991
2 43927  86.4040 199.3551 0001829  82.4686 277.6717 14.34219482194915
IRIDIUM 175             
1 43928U 19002G   22275.30403730  .00000981  00000+0  15176-3 0  9996
2 43928  86.6178 199.2470 0002212  86.1665 273.9805 14.72247340200049
IRIDIUM 171             
1 43929U 19002H   22274.88462098  .00000298  00000+0  99312-4 0  9997
2 43929  86.4050 199.6932 0001879  85.3343 274.8067 14.34220542194849
IRIDIUM 170             
1 43930U 19002J   22275.18048916  .00000993  00000+0  15363-3 0  9997
2 43930  86.6175 199.4701 0002342  89.7953 270.3532 14.72248316200043
IRIDIUM 167             
1 43931U 19002K   22274.87827607  .00000302  00000+0  10086-3 0  9996
2 43931  86.4041 199.5507 0001723  81.4456 278.6935 14.34220695194844
